HERMES-3                
1 63835U 25052BR  26068.93751242  .00020316  00000+0  69958-3 0  9995
2 63835  97.3987 324.6131 0007993 112.9583 247.2502 15.30039785 54863
STARLINK-34527          
1 64482U 25133L   26068.56233087  .00026769  00000+0  91272-3 0  9997
2 64482  53.1573 117.0528 0001222  81.4464 278.6675 15.30198726 41174
